NORAD_CAT_ID,OBJECT_NAME,OBJECT_TYPE,EPOCH,MEAN_MOTION,ECCENTRICITY,INCLINATION,RA_OF_ASC_NODE,ARG_OF_PERICENTER,MEAN_ANOMALY,BSTAR,MEAN_MOTION_DOT,MEAN_MOTION_DDOT,TLE_LINE0,TLE_LINE1,TLE_LINE2,SEMIMAJOR_AXIS,PERIOD,APOGEE,PERIGEE,DECAYED
52634.0,STARLINK-3974,PAYLOAD,2024-04-01 17:33:34,15.08842403,0.0001366,53.218,202.8069,78.2867,281.8278,0.00010475,1.38e-05,0.0,0 STARLINK-3974,1 52634U 22052AN  24092.73164642  .00001380  00000-0  10475-3 0  9993,2 52634  53.2180 202.8069 0001366  78.2867 281.8278 15.08842403104648,6917.873,95.437,540.683,538.793,0.0
52634.0,STARLINK-3974,PAYLOAD,2024-04-02 14:13:34,15.08849091,0.0001239,53.2167,198.9426,85.5988,274.5146,-1.6694e-07,-2.91e-06,0.0,0 STARLINK-3974,1 52634U 22052AN  24093.59276378 -.00000291  00000-0 -16694-6 0  9992,2 52634  53.2167 198.9426 0001239  85.5988 274.5146 15.08849091104394,6917.853,95.437,540.575,538.86,0.0
52634.0,STARLINK-3974,PAYLOAD,2024-04-02 17:24:20,15.0885141,0.0001316,53.2172,198.3478,87.4861,272.6282,2.2026e-05,6.3e-07,0.0,0 STARLINK-3974,1 52634U 22052AN  24093.72524118  .00000063  00000-0  22026-4 0  9994,2 52634  53.2172 198.3478 0001316  87.4861 272.6282 15.08851410104419,6917.846,95.437,540.621,538.8,0.0
52634.0,STARLINK-3974,PAYLOAD,2024-04-03 10:53:36,15.0883648,0.0001532,53.2191,195.0781,95.8549,264.2618,4.7025e-05,4.6e-06,0.0,0 STARLINK-3974,1 52634U 22052AN  24094.45389177  .00000460  00000-0  47025-4 0  9996,2 52634  53.2191 195.0781 0001532  95.8549 264.2618 15.08836480104901,6917.891,95.438,540.816,538.696,0.0
52634.0,STARLINK-3974,PAYLOAD,2024-04-03 12:28:59,15.08840974,0.0001681,53.2187,194.7798,85.0058,275.1126,5.1378e-05,5.3e-06,0.0,0 STARLINK-3974,1 52634U 22052AN  24094.52012924  .00000530  00000-0  51378-4 0  9991,2 52634  53.2187 194.7798 0001681  85.0058 275.1126 15.08840974104538,6917.877,95.437,540.905,538.58,0.0
52634.0,STARLINK-3974,PAYLOAD,2024-04-03 15:39:45,15.08842242,0.0001686,53.2189,194.1844,86.9981,273.1204,0.00010046,1.311e-05,0.0,0 STARLINK-3974,1 52634U 22052AN  24094.65260674  .00001311  00000-0  10046-3 0  9996,2 52634  53.2189 194.1844 0001686  86.9981 273.1204 15.08842242104935,6917.874,95.437,540.905,538.572,0.0
52634.0,STARLINK-3974,PAYLOAD,2024-04-04 13:55:08,15.08848815,0.0001564,53.2178,190.0221,84.8968,275.2202,1.7053e-05,-1.7e-07,0.0,0 STARLINK-3974,1 52634U 22052AN  24095.57996308 -.00000017  00000-0  17053-4 0  9997,2 52634  53.2178 190.0221 0001564  84.8968 275.2202 15.08848815104690,6917.853,95.437,540.8,538.636,0.0
52634.0,STARLINK-3974,PAYLOAD,2024-04-04 23:27:27,15.08842927,0.0001559,53.2171,188.2385,84.4982,275.6188,-4.2721e-05,-9.68e-06,0.0,0 STARLINK-3974,1 52634U 22052AN  24095.97740737 -.00000968  00000-0 -42721-4 0  9990,2 52634  53.2171 188.2385 0001559  84.4982 275.6188 15.08842927105134,6917.871,95.437,540.815,538.658,0.0
52634.0,STARLINK-3974,PAYLOAD,2024-04-05 12:10:33,15.0883289,0.0001621,53.2171,185.856,82.0239,278.0937,-7.9458e-06,-4.14e-06,0.0,0 STARLINK-3974,1 52634U 22052AN  24096.50733354 -.00000414  00000-0 -79458-5 0  9991,2 52634  53.2171 185.8560 0001621  82.0239 278.0937 15.08832890105217,6917.902,95.438,540.889,538.646,0.0
52634.0,STARLINK-3974,PAYLOAD,2024-04-06 12:01:19,15.08849077,0.0001454,53.2167,181.3955,87.6561,272.4598,2.9794e-05,1.86e-06,0.0,0 STARLINK-3974,1 52634U 22052AN  24097.50092291  .00000186  00000-0  29794-4 0  9991,2 52634  53.2167 181.3955 0001454  87.6561 272.4598 15.08849077105366,6917.853,95.437,540.724,538.712,0.0
52634.0,STARLINK-3974,PAYLOAD,2024-04-07 10:16:44,15.08829942,0.0001515,53.2165,177.2364,78.3642,281.752,6.622e-05,7.66e-06,0.0,0 STARLINK-3974,1 52634U 22052AN  24098.42829604  .00000766  00000-0  66220-4 0  9998,2 52634  53.2165 177.2364 0001515  78.3642 281.7520 15.08829942105500,6917.911,95.438,540.824,538.728,0.0
52634.0,STARLINK-3974,PAYLOAD,2024-04-07 11:52:07,15.08833445,0.0001414,53.2165,176.9379,86.1822,273.9332,9.8825e-05,1.285e-05,0.0,0 STARLINK-3974,1 52634U 22052AN  24098.49453267  .00001285  00000-0  98825-4 0  9996,2 52634  53.2165 176.9379 0001414  86.1822 273.9332 15.08833445105133,6917.9,95.438,540.744,538.787,0.0
52634.0,STARLINK-3974,PAYLOAD,2024-04-08 05:21:22,15.08848517,0.0001361,53.2188,173.6669,88.1334,271.9814,-0.00013189,-2.387e-05,0.0,0 STARLINK-3974,1 52634U 22052AN  24099.22317303 -.00002387  00000-0 -13189-3 0  9993,2 52634  53.2188 173.6669 0001361  88.1334 271.9814 15.08848517105628,6917.854,95.437,540.661,538.778,0.0
52634.0,STARLINK-3974,PAYLOAD,2024-04-08 11:42:53,15.08877999,0.0001889,53.2174,172.4778,104.0598,256.0604,-0.00047867,-7.906e-05,0.0,0 STARLINK-3974,1 52634U 22052AN  24099.48812280 -.00007906  00000-0 -47867-3 0  9997,2 52634  53.2174 172.4778 0001889 104.0598 256.0604 15.08877999105667,6917.764,95.435,540.936,538.322,0.0
52634.0,STARLINK-3974,PAYLOAD,2024-04-08 21:15:13,15.08837511,0.0001579,53.2184,170.6942,89.9062,270.2111,6.7291e-06,-1.81e-06,0.0,0 STARLINK-3974,1 52634U 22052AN  24099.88557491 -.00000181  00000-0  67291-5 0  9993,2 52634  53.2184 170.6942 0001579  89.9062 270.2111 15.08837511105346,6917.888,95.438,540.845,538.661,0.0
52634.0,STARLINK-3974,PAYLOAD,2024-04-09 05:12:09,15.08835609,0.0001452,53.2173,169.2071,89.1255,270.9904,5.5353e-05,5.93e-06,0.0,0 STARLINK-3974,1 52634U 22052AN  24100.21677459  .00000593  00000-0  55353-4 0  9991,2 52634  53.2173 169.2071 0001452  89.1255 270.9904 15.08835609105777,6917.894,95.438,540.763,538.754,0.0
52634.0,STARLINK-3974,PAYLOAD,2024-04-09 11:33:41,15.08838867,0.0001428,53.2177,168.0182,89.0157,271.0999,7.507e-05,9.07e-06,0.0,0 STARLINK-3974,1 52634U 22052AN  24100.48173255  .00000907  00000-0  75070-4 0  9992,2 52634  53.2177 168.0182 0001428  89.0157 271.0999 15.08838867105432,6917.884,95.438,540.737,538.761,0.0
52634.0,STARLINK-3974,PAYLOAD,2024-04-09 21:06:00,15.08842902,0.0001406,53.2177,166.2343,85.9301,274.1852,-2.6517e-05,-7.1e-06,0.0,0 STARLINK-3974,1 52634U 22052AN  24100.87917304 -.00000710  00000-0 -26517-4 0  9992,2 52634  53.2177 166.2343 0001406  85.9301 274.1852 15.08842902105496,6917.872,95.437,540.709,538.764,0.0
52634.0,STARLINK-3974,PAYLOAD,2024-04-10 09:49:05,15.08841378,0.0001346,53.2173,163.8566,92.6821,267.4325,6.4341e-05,7.36e-06,0.0,0 STARLINK-3974,1 52634U 22052AN  24101.40909207  .00000736  00000-0  64341-4 0  9998,2 52634  53.2173 163.8566 0001346  92.6821 267.4325 15.08841378105954,6917.876,95.437,540.672,538.81,0.0
52634.0,STARLINK-3974,PAYLOAD,2024-04-10 20:56:47,15.08843684,0.0001347,53.2174,161.7752,91.9598,268.1548,8.0471e-05,9.93e-06,0.0,0 STARLINK-3974,1 52634U 22052AN  24101.87276927  .00000993  00000-0  80471-4 0  9992,2 52634  53.2174 161.7752 0001347  91.9598 268.1548 15.08843684105646,6917.869,95.437,540.666,538.802,0.0
52634.0,STARLINK-3974,PAYLOAD,2024-04-11 11:15:14,15.08854069,0.0001292,53.2168,159.0981,91.5653,268.5487,0.00013799,1.91e-05,0.0,0 STARLINK-3974,1 52634U 22052AN  24102.46891824  .00001910  00000-0  13799-3 0  9995,2 52634  53.2168 159.0981 0001292  91.5653 268.5487 15.08854069106118,6917.837,95.437,540.596,538.809,0.0
52634.0,STARLINK-3974,PAYLOAD,2024-04-12 03:09:07,15.08835633,0.0001436,53.2173,156.1229,88.1293,271.9864,-1.1501e-05,-4.71e-06,0.0,0 STARLINK-3974,1 52634U 22052AN  24103.13133481 -.00000471  00000-0 -11501-4 0  9991,2 52634  53.2173 156.1229 0001436  88.1293 271.9864 15.08835633106213,6917.894,95.438,540.752,538.765,0.0
52634.0,STARLINK-3974,PAYLOAD,2024-04-12 11:06:03,15.08834381,0.0001433,53.2172,154.6345,82.7766,277.3389,-4.9263e-05,-1.072e-05,0.0,0 STARLINK-3974,1 52634U 22052AN  24103.46253864 -.00001072  00000-0 -49263-4 0  9999,2 52634  53.2172 154.6345 0001433  82.7766 277.3389 15.08834381105889,6917.898,95.438,540.754,538.771,0.0
52634.0,STARLINK-3974,PAYLOAD,2024-04-13 09:21:27,15.08839175,0.0001571,53.2176,150.4728,78.0985,282.0183,-9.989e-05,-1.877e-05,0.0,0 STARLINK-3974,1 52634U 22052AN  24104.38990156 -.00001877  00000-0 -99890-4 0  9997,2 52634  53.2176 150.4728 0001571  78.0985 282.0183 15.08839175106406,6917.883,95.438,540.835,538.661,0.0
52634.0,STARLINK-3974,PAYLOAD,2024-04-14 09:12:14,15.08841107,0.0001564,53.2176,146.0126,83.9041,276.2129,0.00022122,3.235e-05,0.0,0 STARLINK-3974,1 52634U 22052AN  24105.38349632  .00003235  00000-0  22122-3 0  9996,2 52634  53.2176 146.0126 0001564  83.9041 276.2129 15.08841107106558,6917.877,95.437,540.824,538.66,0.0
52634.0,STARLINK-3974,PAYLOAD,2024-04-15 09:03:01,15.08846023,0.0001605,53.2172,141.5522,89.4494,270.6682,0.00016871,2.398e-05,0.0,0 STARLINK-3974,1 52634U 22052AN  24106.37709900  .00002398  00000-0  16871-3 0  9997,2 52634  53.2172 141.5522 0001605  89.4494 270.6682 15.08846023106704,6917.862,95.437,540.837,538.617,0.0
52634.0,STARLINK-3974,PAYLOAD,2024-04-16 02:32:15,15.08841965,0.0001741,53.2176,138.2826,97.4681,262.6509,6.885e-06,-1.79e-06,0.0,0 STARLINK-3974,1 52634U 22052AN  24107.10573973 -.00000179  00000-0  68850-5 0  9990,2 52634  53.2176 138.2826 0001741  97.4681 262.6509 15.08841965106817,6917.874,95.437,540.944,538.535,0.0
52634.0,STARLINK-3974,PAYLOAD,2024-04-16 08:53:48,15.08842559,0.0001471,53.2176,137.095,91.0205,269.0956,5.0625e-05,5.18e-06,0.0,0 STARLINK-3974,1 52634U 22052AN  24107.37070020  .00000518  00000-0  50625-4 0  9990,2 52634  53.2176 137.0950 0001471  91.0205 269.0956 15.08842559106473,6917.873,95.437,540.755,538.72,0.0
52634.0,STARLINK-3974,PAYLOAD,2024-04-17 07:09:12,15.08836925,0.0001446,53.2156,132.9303,87.6417,272.4741,4.5566e-05,4.37e-06,0.0,0 STARLINK-3974,1 52634U 22052AN  24108.29806510  .00000437  00000-0  45566-4 0  9991,2 52634  53.2156 132.9303 0001446  87.6417 272.4741 15.08836925106992,6917.89,95.438,540.755,538.754,0.0
52634.0,STARLINK-3974,PAYLOAD,2024-04-18 02:13:51,15.08831561,0.0001529,53.2151,129.3601,86.4524,273.6643,4.7193e-05,4.63e-06,0.0,0 STARLINK-3974,1 52634U 22052AN  24109.09295154  .00000463  00000-0  47193-4 0  9993,2 52634  53.2151 129.3601 0001529  86.4524 273.6643 15.08831561107116,6917.906,95.438,540.829,538.713,0.0
